[{"OBJECT_NAME":"PISAT","OBJECT_ID":"2016-059B","EPOCH":"2026-03-09T23:04:32.673792","MEAN_MOTION":14.68774579,"ECCENTRICITY":0.00295599,"INCLINATION":97.8192,"RA_OF_ASC_NODE":73.6916,"ARG_OF_PERICENTER":159.8662,"MEAN_ANOMALY":200.3717,"EPHEMERIS_TYPE":0,"CLASSIFICATION_TYPE":"U","NORAD_CAT_ID":41784,"ELEMENT_SET_NO":999,"REV_AT_EPOCH":50517,"BSTAR":0.00024765748,"MEAN_MOTION_DOT":1.407e-5,"MEAN_MOTION_DDOT":0},{"OBJECT_NAME":"COSMOS 2251 DEB","OBJECT_ID":"1993-036XJ","EPOCH":"2026-03-09T17:53:54.037248","MEAN_MOTION":14.6095244,"ECCENTRICITY":0.00495414,"INCLINATION":74.0489,"RA_OF_ASC_NODE":295.1183,"ARG_OF_PERICENTER":341.3208,"MEAN_ANOMALY":86.3995,"EPHEMERIS_TYPE":0,"CLASSIFICATION_TYPE":"U","NORAD_CAT_ID":34637,"ELEMENT_SET_NO":999,"REV_AT_EPOCH":89797,"BSTAR":0.00068913187,"MEAN_MOTION_DOT":3.406e-5,"MEAN_MOTION_DDOT":0}]
